[{"OBJECT_NAME":"STARLINK-36270","OBJECT_ID":"2025-304J","EPOCH":"2026-03-09T16:14:37.616928","MEAN_MOTION":14.99128742,"ECCENTRICITY":0.00029058,"INCLINATION":70.0031,"RA_OF_ASC_NODE":174.4617,"ARG_OF_PERICENTER":259.113,"MEAN_ANOMALY":100.9703,"EPHEMERIS_TYPE":0,"CLASSIFICATION_TYPE":"U","NORAD_CAT_ID":67200,"ELEMENT_SET_NO":999,"REV_AT_EPOCH":1388,"BSTAR":-0.0013227092,"MEAN_MOTION_DOT":-0.00016169,"MEAN_MOTION_DDOT":0},{"OBJECT_NAME":"FENGYUN 1C DEB","OBJECT_ID":"1999-025CDM","EPOCH":"2026-03-09T06:24:55.905408","MEAN_MOTION":15.0430028,"ECCENTRICITY":0.00202824,"INCLINATION":99.0326,"RA_OF_ASC_NODE":346.4521,"ARG_OF_PERICENTER":26.5298,"MEAN_ANOMALY":133.8427,"EPHEMERIS_TYPE":0,"CLASSIFICATION_TYPE":"U","NORAD_CAT_ID":31714,"ELEMENT_SET_NO":999,"REV_AT_EPOCH":97342,"BSTAR":0.0098433176,"MEAN_MOTION_DOT":0.00140271,"MEAN_MOTION_DDOT":0}]
